[{"CCSDS_OMM_VERS":"2.0","COMMENT":"GENERATED VIA SPACE-TRACK.ORG API","CREATION_DATE":"2020-05-13T18:07:31","ORIGINATOR":"18 SPCS","OBJECT_NAME":"ONEWEB-0007","OBJECT_ID":"2019-010D","CENTER_NAME":"EARTH","REF_FRAME":"TEME","TIME_SYSTEM":"UTC","MEAN_ELEMENT_THEORY":"SGP4","EPOCH":"2020-05-13T14:00:01.000224","MEAN_MOTION":"13.21816676","ECCENTRICITY":"0.00020530","INCLINATION":"87.9188","RA_OF_ASC_NODE":"341.3534","ARG_OF_PERICENTER":"86.4747","MEAN_ANOMALY":"185.6224","EPHEMERIS_TYPE":"0","CLASSIFICATION_TYPE":"U","NORAD_CAT_ID":"44060","ELEMENT_SET_NO":"999","REV_AT_EPOCH":"170","BSTAR":"-0.00303390000000","MEAN_MOTION_DOT":"-0.00001240","MEAN_MOTION_DDOT":"0.0000000000000","SEMIMAJOR_AXIS":"7555.925","PERIOD":"108.940","APOAPSIS":"1179.342","PERIAPSIS":"1176.239","OBJECT_TYPE":"PAYLOAD","RCS_SIZE":"LARGE","COUNTRY_CODE":"UK","LAUNCH_DATE":"2019-02-27","SITE":"FRGUI","DECAY_DATE":null,"FILE":"2748684","GP_ID":"153890825","TLE_LINE0":"0 ONEWEB-0007","TLE_LINE1":"1 44060U 19010D   20134.58334491 -.00001240 +00000-0 -30339-2 0  9991","TLE_LINE2":"2 44060 087.9188 341.3534 0002053 086.4747 185.6224 13.21816676001703"},{"CCSDS_OMM_VERS":"2.0","COMMENT":"GENERATED VIA SPACE-TRACK.ORG API","CREATION_DATE":"2020-05-13T22:16:09","ORIGINATOR":"18 SPCS","OBJECT_NAME":"ONEWEB-0007","OBJECT_ID":"2019-010D","CENTER_NAME":"EARTH","REF_FRAME":"TEME","TIME_SYSTEM":"UTC","MEAN_ELEMENT_THEORY":"SGP4","EPOCH":"2020-05-13T22:00:00.999936","MEAN_MOTION":"13.21788790","ECCENTRICITY":"0.00020560","INCLINATION":"87.9188","RA_OF_ASC_NODE":"341.2861","ARG_OF_PERICENTER":"85.3539","MEAN_ANOMALY":"332.0180","EPHEMERIS_TYPE":"0","CLASSIFICATION_TYPE":"U","NORAD_CAT_ID":"44060","ELEMENT_SET_NO":"999","REV_AT_EPOCH":"5849","BSTAR":"0.09117100000000","MEAN_MOTION_DOT":"0.00037803","MEAN_MOTION_DDOT":"0.0000000000000","SEMIMAJOR_AXIS":"7556.032","PERIOD":"108.943","APOAPSIS":"1179.450","PERIAPSIS":"1176.343","OBJECT_TYPE":"PAYLOAD","RCS_SIZE":"LARGE","COUNTRY_CODE":"UK","LAUNCH_DATE":"2019-02-27","SITE":"FRGUI","DECAY_DATE":null,"FILE":"2748689","GP_ID":"153892187","TLE_LINE0":"0 ONEWEB-0007","TLE_LINE1":"1 44060U 19010D   20134.91667824  .00037803  00000-0  91171-1 0  9999","TLE_LINE2":"2 44060  87.9188 341.2861 0002056  85.3539 332.0180 13.21788790 58497"},{"CCSDS_OMM_VERS":"2.0","COMMENT":"GENERATED VIA SPACE-TRACK.ORG API","CREATION_DATE":"2020-05-14T16:49:08","ORIGINATOR":"18 SPCS","OBJECT_NAME":"ONEWEB-0007","OBJECT_ID":"2019-010D","CENTER_NAME":"EARTH","REF_FRAME":"TEME","TIME_SYSTEM":"UTC","MEAN_ELEMENT_THEORY":"SGP4","EPOCH":"2020-05-14T06:00:00.999648","MEAN_MOTION":"13.21827015","ECCENTRICITY":"0.00021100","INCLINATION":"87.9187","RA_OF_ASC_NODE":"341.2201","ARG_OF_PERICENTER":"85.6052","MEAN_ANOMALY":"117.0159","EPHEMERIS_TYPE":"0","CLASSIFICATION_TYPE":"U","NORAD_CAT_ID":"44060","ELEMENT_SET_NO":"999","REV_AT_EPOCH":"172","BSTAR":"-0.09700400000000","MEAN_MOTION_DOT":"-0.00039875","MEAN_MOTION_DDOT":"0.0000000000000","SEMIMAJOR_AXIS":"7555.886","PERIOD":"108.940","APOAPSIS":"1179.345","PERIAPSIS":"1176.157","OBJECT_TYPE":"PAYLOAD","RCS_SIZE":"LARGE","COUNTRY_CODE":"UK","LAUNCH_DATE":"2019-02-27","SITE":"FRGUI","DECAY_DATE":null,"FILE":"2749106","GP_ID":"153940794","TLE_LINE0":"0 ONEWEB-0007","TLE_LINE1":"1 44060U 19010D   20135.25001157 -.00039875 +00000-0 -97004-1 0  9992","TLE_LINE2":"2 44060 087.9187 341.2201 0002110 085.6052 117.0159 13.21827015001723"},{"CCSDS_OMM_VERS":"2.0","COMMENT":"GENERATED VIA SPACE-TRACK.ORG API","CREATION_DATE":"2020-05-14T11:26:09","ORIGINATOR":"18 SPCS","OBJECT_NAME":"ONEWEB-0007","OBJECT_ID":"2019-010D","CENTER_NAME":"EARTH","REF_FRAME":"TEME","TIME_SYSTEM":"UTC","MEAN_ELEMENT_THEORY":"SGP4","EPOCH":"2020-05-14T10:00:01.999584","MEAN_MOTION":"13.21786502","ECCENTRICITY":"0.00020780","INCLINATION":"87.9187","RA_OF_ASC_NODE":"341.1870","ARG_OF_PERICENTER":"85.7521","MEAN_ANOMALY":"189.5660","EPHEMERIS_TYPE":"0","CLASSIFICATION_TYPE":"U","NORAD_CAT_ID":"44060","ELEMENT_SET_NO":"999","REV_AT_EPOCH":"5855","BSTAR":"0.09922900000000","MEAN_MOTION_DOT":"0.00041157","MEAN_MOTION_DDOT":"0.0000000000000","SEMIMAJOR_AXIS":"7556.040","PERIOD":"108.943","APOAPSIS":"1179.476","PERIAPSIS":"1176.335","OBJECT_TYPE":"PAYLOAD","RCS_SIZE":"LARGE","COUNTRY_CODE":"UK","LAUNCH_DATE":"2019-02-27","SITE":"FRGUI","DECAY_DATE":null,"FILE":"2749011","GP_ID":"153919552","TLE_LINE0":"0 ONEWEB-0007","TLE_LINE1":"1 44060U 19010D   20135.41668981  .00041157  00000-0  99229-1 0  9999","TLE_LINE2":"2 44060  87.9187 341.1870 0002078  85.7521 189.5660 13.21786502 58558"},{"CCSDS_OMM_VERS":"2.0","COMMENT":"GENERATED VIA SPACE-TRACK.ORG API","CREATION_DATE":"2020-05-15T01:25:25","ORIGINATOR":"18 SPCS","OBJECT_NAME":"ONEWEB-0007","OBJECT_ID":"2019-010D","CENTER_NAME":"EARTH","REF_FRAME":"TEME","TIME_SYSTEM":"UTC","MEAN_ELEMENT_THEORY":"SGP4","EPOCH":"2020-05-14T22:00:00.999936","MEAN_MOTION":"13.21786975","ECCENTRICITY":"0.00020360","INCLINATION":"87.9187","RA_OF_ASC_NODE":"341.0863","ARG_OF_PERICENTER":"85.1105","MEAN_ANOMALY":"48.0427","EPHEMERIS_TYPE":"0","CLASSIFICATION_TYPE":"U","NORAD_CAT_ID":"44060","ELEMENT_SET_NO":"999","REV_AT_EPOCH":"171","BSTAR":"0.09644100000000","MEAN_MOTION_DOT":"0.00039996","MEAN_MOTION_DDOT":"0.0000000000000","SEMIMAJOR_AXIS":"7556.039","PERIOD":"108.943","APOAPSIS":"1179.442","PERIAPSIS":"1176.365","OBJECT_TYPE":"PAYLOAD","RCS_SIZE":"LARGE","COUNTRY_CODE":"UK","LAUNCH_DATE":"2019-02-27","SITE":"FRGUI","DECAY_DATE":null,"FILE":"2749116","GP_ID":"153960748","TLE_LINE0":"0 ONEWEB-0007","TLE_LINE1":"1 44060U 19010D   20135.91667824 +.00039996 +00000-0 +96441-1 0  9990","TLE_LINE2":"2 44060 087.9187 341.0863 0002036 085.1105 048.0427 13.21786975001715"},{"CCSDS_OMM_VERS":"2.0","COMMENT":"GENERATED VIA SPACE-TRACK.ORG API","CREATION_DATE":"2020-05-15T12:26:09","ORIGINATOR":"18 SPCS","OBJECT_NAME":"ONEWEB-0007","OBJECT_ID":"2019-010D","CENTER_NAME":"EARTH","REF_FRAME":"TEME","TIME_SYSTEM":"UTC","MEAN_ELEMENT_THEORY":"SGP4","EPOCH":"2020-05-15T12:00:00.999648","MEAN_MOTION":"13.21792591","ECCENTRICITY":"0.00020710","INCLINATION":"87.9187","RA_OF_ASC_NODE":"340.9706","ARG_OF_PERICENTER":"85.9256","MEAN_ANOMALY":"301.4271","EPHEMERIS_TYPE":"0","CLASSIFICATION_TYPE":"U","NORAD_CAT_ID":"44060","ELEMENT_SET_NO":"999","REV_AT_EPOCH":"5870","BSTAR":"0.09638100000000","MEAN_MOTION_DOT":"0.00039975","MEAN_MOTION_DDOT":"0.0000000000000","SEMIMAJOR_AXIS":"7556.017","PERIOD":"108.942","APOAPSIS":"1179.447","PERIAPSIS":"1176.317","OBJECT_TYPE":"PAYLOAD","RCS_SIZE":"LARGE","COUNTRY_CODE":"UK","LAUNCH_DATE":"2019-02-27","SITE":"FRGUI","DECAY_DATE":null,"FILE":"2749133","GP_ID":"153982269","TLE_LINE0":"0 ONEWEB-0007","TLE_LINE1":"1 44060U 19010D   20136.50001157  .00039975  00000-0  96381-1 0  9997","TLE_LINE2":"2 44060  87.9187 340.9706 0002071  85.9256 301.4271 13.21792591 58708"},{"CCSDS_OMM_VERS":"2.0","COMMENT":"GENERATED VIA SPACE-TRACK.ORG API","CREATION_DATE":"2020-05-15T19:51:30","ORIGINATOR":"18 SPCS","OBJECT_NAME":"ONEWEB-0007","OBJECT_ID":"2019-010D","CENTER_NAME":"EARTH","REF_FRAME":"TEME","TIME_SYSTEM":"UTC","MEAN_ELEMENT_THEORY":"SGP4","EPOCH":"2020-05-15T14:00:01.000224","MEAN_MOTION":"13.21816529","ECCENTRICITY":"0.00020520","INCLINATION":"87.9187","RA_OF_ASC_NODE":"340.9538","ARG_OF_PERICENTER":"85.4957","MEAN_ANOMALY":"338.1635","EPHEMERIS_TYPE":"0","CLASSIFICATION_TYPE":"U","NORAD_CAT_ID":"44060","ELEMENT_SET_NO":"999","REV_AT_EPOCH":"172","BSTAR":"-0.00831120000000","MEAN_MOTION_DOT":"-0.00003418","MEAN_MOTION_DDOT":"0.0000000000000","SEMIMAJOR_AXIS":"7555.926","PERIOD":"108.940","APOAPSIS":"1179.341","PERIAPSIS":"1176.240","OBJECT_TYPE":"PAYLOAD","RCS_SIZE":"LARGE","COUNTRY_CODE":"UK","LAUNCH_DATE":"2019-02-27","SITE":"FRGUI","DECAY_DATE":null,"FILE":"2749637","GP_ID":"154013236","TLE_LINE0":"0 ONEWEB-0007","TLE_LINE1":"1 44060U 19010D   20136.58334491 -.00003418 +00000-0 -83112-2 0  9999","TLE_LINE2":"2 44060 087.9187 340.9538 0002052 085.4957 338.1635 13.21816529001722"},{"CCSDS_OMM_VERS":"2.0","COMMENT":"GENERATED VIA SPACE-TRACK.ORG API","CREATION_DATE":"2020-05-15T22:16:09","ORIGINATOR":"18 SPCS","OBJECT_NAME":"ONEWEB-0007","OBJECT_ID":"2019-010D","CENTER_NAME":"EARTH","REF_FRAME":"TEME","TIME_SYSTEM":"UTC","MEAN_ELEMENT_THEORY":"SGP4","EPOCH":"2020-05-15T22:00:01.999584","MEAN_MOTION":"13.21787712","ECCENTRICITY":"0.00020330","INCLINATION":"87.9188","RA_OF_ASC_NODE":"340.8864","ARG_OF_PERICENTER":"84.3663","MEAN_ANOMALY":"124.6220","EPHEMERIS_TYPE":"0","CLASSIFICATION_TYPE":"U","NORAD_CAT_ID":"44060","ELEMENT_SET_NO":"999","REV_AT_EPOCH":"5875","BSTAR":"0.09794700000000","MEAN_MOTION_DOT":"0.00040624","MEAN_MOTION_DDOT":"0.0000000000000","SEMIMAJOR_AXIS":"7556.036","PERIOD":"108.943","APOAPSIS":"1179.437","PERIAPSIS":"1176.365","OBJECT_TYPE":"PAYLOAD","RCS_SIZE":"LARGE","COUNTRY_CODE":"UK","LAUNCH_DATE":"2019-02-27","SITE":"FRGUI","DECAY_DATE":null,"FILE":"2749668","GP_ID":"154014866","TLE_LINE0":"0 ONEWEB-0007","TLE_LINE1":"1 44060U 19010D   20136.91668981  .00040624  00000-0  97947-1 0  9998","TLE_LINE2":"2 44060  87.9188 340.8864 0002033  84.3663 124.6220 13.21787712 58759"}]